{"type": "FeatureCollection", "features": [ {"type": "Feature", "properties": {"norad_id": 37532, "name": "COSMOS 2251 DEB", "group": "cosmos-2251-debris", "lat": -29.916409342554143, "lon": 25.288136749292715, "alt_km": 754.6608532279079, "timestamp": "2025-12-23T11:34:48.558038+00:00", "meta": {"OBJECT_NAME": "COSMOS 2251 DEB", "OBJECT_ID": "1993-036BNM", "EPOCH": "2025-12-14T09:22:45.259968", "MEAN_MOTION": 14.42410404, "ECCENTRICITY": 0.00160101, "INCLINATION": 74.0496, "RA_OF_ASC_NODE": 212.6604, "ARG_OF_PERICENTER": 313.2255, "MEAN_ANOMALY": 226.6563, "EPHEMERIS_TYPE": 0, "CLASSIFICATION_TYPE": "U", "NORAD_CAT_ID": 37532, "ELEMENT_SET_NO": 999, "REV_AT_EPOCH": 84939, "BSTAR": 0.00027461522, "MEAN_MOTION_DOT": 8.83e-06, "MEAN_MOTION_DDOT": 0}, "tle": {"line1": "1 37532U 93036BNM 25348.39080162  .00000883  00000+0  27462-3 0  9994", "line2": "2 37532  74.0496 212.6604 0016010 313.2255 226.6563 14.42410404849399"}}, "geometry": {"type": "Point", "coordinates": [25.288136749292715, -29.916409342554143]}}, {"type": "Feature", "properties": {"norad_id": 37533, "name": "COSMOS 2251 DEB", "group": "cosmos-2251-debris", "lat": -33.55191665876089, "lon": 3.7900680862092546, "alt_km": 745.952958486384, "timestamp": "2025-12-23T11:34:48.558047+00:00", "meta": {"OBJECT_NAME": "COSMOS 2251 DEB", "OBJECT_ID": "1993-036BNN", "EPOCH": "2025-12-17T06:38:38.162976", "MEAN_MOTION": 14.12190824, "ECCENTRICITY": 0.0157786, "INCLINATION": 74.0692, "RA_OF_ASC_NODE": 183.8069, "ARG_OF_PERICENTER": 239.4795, "MEAN_ANOMALY": 119.0691, "EPHEMERIS_TYPE": 0, "CLASSIFICATION_TYPE": "U", "NORAD_CAT_ID": 37533, "ELEMENT_SET_NO": 999, "REV_AT_EPOCH": 62985, "BSTAR": 0.0010470743, "MEAN_MOTION_DOT": 2.138e-05, "MEAN_MOTION_DDOT": 0}, "tle": {"line1": "1 37533U 93036BNN 25351.27683059  .00002138  00000+0  10471-2 0  9996", "line2": "2 37533  74.0692 183.8069 0157786 239.4795 119.0691 14.12190824629858"}}, "geometry": {"type": "Point", "coordinates": [3.7900680862092546, -33.55191665876089]}}, {"type": "Feature", "properties": {"norad_id": 37535, "name": "COSMOS 2251 DEB", "group": "cosmos-2251-debris", "lat": 51.08853878373122, "lon": -147.75220498977976, "alt_km": 684.5323221228591, "timestamp": "2025-12-23T11:34:48.558056+00:00", "meta": {"OBJECT_NAME": "COSMOS 2251 DEB", "OBJECT_ID": "1993-036BNQ", "EPOCH": "2025-12-22T22:38:26.722176", "MEAN_MOTION": 14.58519559, "ECCENTRICITY": 0.0027211, "INCLINATION": 74.0235, "RA_OF_ASC_NODE": 54.0622, "ARG_OF_PERICENTER": 191.5022, "MEAN_ANOMALY": 344.9796, "EPHEMERIS_TYPE": 0, "CLASSIFICATION_TYPE": "U", "NORAD_CAT_ID": 37535, "ELEMENT_SET_NO": 999, "REV_AT_EPOCH": 85473, "BSTAR": 0.00069364, "MEAN_MOTION_DOT": 3.211e-05, "MEAN_MOTION_DDOT": 0}, "tle": {"line1": "1 37535U 93036BNQ 25356.94336484  .00003211  00000+0  69364-3 0  9993", "line2": "2 37535  74.0235  54.0622 0027211 191.5022 344.9796 14.58519559854739"}}, "geometry": {"type": "Point", "coordinates": [-147.75220498977976, 51.08853878373122]}}, {"type": "Feature", "properties": {"norad_id": 37537, "name": "COSMOS 2251 DEB", "group": "cosmos-2251-debris", "lat": -43.57783971013271, "lon": 81.1603282365146, "alt_km": 806.4181036053014, "timestamp": "2025-12-23T11:34:48.558065+00:00", "meta": {"OBJECT_NAME": "COSMOS 2251 DEB", "OBJECT_ID": "1993-036BNS", "EPOCH": "2025-12-23T00:30:43.344000", "MEAN_MOTION": 14.37504728, "ECCENTRICITY": 0.0050752, "INCLINATION": 74.0118, "RA_OF_ASC_NODE": 246.178, "ARG_OF_PERICENTER": 23.6925, "MEAN_ANOMALY": 336.6549, "EPHEMERIS_TYPE": 0, "CLASSIFICATION_TYPE": "U", "NORAD_CAT_ID": 37537, "ELEMENT_SET_NO": 999, "REV_AT_EPOCH": 85181, "BSTAR": 0.00019411, "MEAN_MOTION_DOT": 5.64e-06, "MEAN_MOTION_DDOT": 0}, "tle": {"line1": "1 37537U 93036BNS 25357.02133500  .00000564  00000+0  19411-3 0  9995", "line2": "2 37537  74.0118 246.1780 0050752  23.6925 336.6549 14.37504728851812"}}, "geometry": {"type": "Point", "coordinates": [81.1603282365146, -43.57783971013271]}}, {"type": "Feature", "properties": {"norad_id": 37546, "name": "COSMOS 2251 DEB", "group": "cosmos-2251-debris", "lat": 5.261332406303408, "lon": -104.70823801322337, "alt_km": 629.2920963416282, "timestamp": "2025-12-23T11:34:48.558075+00:00", "meta": {"OBJECT_NAME": "COSMOS 2251 DEB", "OBJECT_ID": "1993-036BPB", "EPOCH": "2025-12-22T05:36:41.418144", "MEAN_MOTION": 14.80847243, "ECCENTRICITY": 0.00051432, "INCLINATION": 74.0225, "RA_OF_ASC_NODE": 79.2675, "ARG_OF_PERICENTER": 73.5105, "MEAN_ANOMALY": 286.6636, "EPHEMERIS_TYPE": 0, "CLASSIFICATION_TYPE": "U", "NORAD_CAT_ID": 37546, "ELEMENT_SET_NO": 999, "REV_AT_EPOCH": 66028, "BSTAR": 0.0026855013, "MEAN_MOTION_DOT": 0.00020767, "MEAN_MOTION_DDOT": 0}, "tle": {"line1": "1 37546U 93036BPB 25356.23381271  .00020767  00000+0  26855-2 0  9993", "line2": "2 37546  74.0225  79.2675 0005143  73.5105 286.6636 14.80847243660287"}}, "geometry": {"type": "Point", "coordinates": [-104.70823801322337, 5.261332406303408]}}, {"type": "Feature", "properties": {"norad_id": 37959, "name": "COSMOS 2251 DEB", "group": "cosmos-2251-debris", "lat": -36.24499925671401, "lon": -131.39305937278286, "alt_km": 674.2273204693956, "timestamp": "2025-12-23T11:34:48.558084+00:00", "meta": {"OBJECT_NAME": "COSMOS 2251 DEB", "OBJECT_ID": "1993-036BPJ", "EPOCH": "2025-12-21T21:31:34.881600", "MEAN_MOTION": 14.58196001, "ECCENTRICITY": 0.00572652, "INCLINATION": 74.0108, "RA_OF_ASC_NODE": 39.4932, "ARG_OF_PERICENTER": 180.3481, "MEAN_ANOMALY": 356.9847, "EPHEMERIS_TYPE": 0, "CLASSIFICATION_TYPE": "U", "NORAD_CAT_ID": 37959, "ELEMENT_SET_NO": 999, "REV_AT_EPOCH": 80260, "BSTAR": 0.00054900426, "MEAN_MOTION_DOT": 2.561e-05, "MEAN_MOTION_DDOT": 0}, "tle": {"line1": "1 37959U 93036BPJ 25355.89693150  .00002561  00000+0  54900-3 0  9999", "line2": "2 37959  74.0108  39.4932 0057265 180.3481 356.9847 14.58196001802608"}}, "geometry": {"type": "Point", "coordinates": [-131.39305937278286, -36.24499925671401]}}, {"type": "Feature", "properties": {"norad_id": 37960, "name": "COSMOS 2251 DEB", "group": "cosmos-2251-debris", "lat": -60.334785504742285, "lon": 137.94700982297874, "alt_km": 934.7119710525358, "timestamp": "2025-12-23T11:34:48.558093+00:00", "meta": {"OBJECT_NAME": "COSMOS 2251 DEB", "OBJECT_ID": "1993-036BPK", "EPOCH": "2025-12-21T05:19:33.246912", "MEAN_MOTION": 14.07880113, "ECCENTRICITY": 0.0248301, "INCLINATION": 74.0587, "RA_OF_ASC_NODE": 172.0268, "ARG_OF_PERICENTER": 188.6422, "MEAN_ANOMALY": 171.0406, "EPHEMERIS_TYPE": 0, "CLASSIFICATION_TYPE": "U", "NORAD_CAT_ID": 37960, "ELEMENT_SET_NO": 999, "REV_AT_EPOCH": 77525, "BSTAR": 0.00064412, "MEAN_MOTION_DOT": 1.424e-05, "MEAN_MOTION_DDOT": 0}, "tle": {"line1": "1 37960U 93036BPK 25355.22191258  .00001424  00000+0  64412-3 0  9996", "line2": "2 37960  74.0587 172.0268 0248301 188.6422 171.0406 14.07880113775251"}}, "geometry": {"type": "Point", "coordinates": [137.94700982297874, -60.334785504742285]}}, {"type": "Feature", "properties": {"norad_id": 37961, "name": "COSMOS 2251 DEB", "group": "cosmos-2251-debris", "lat": -72.38195663206392, "lon": 52.3777535681146, "alt_km": 702.4646585974779, "timestamp": "2025-12-23T11:34:48.558102+00:00", "meta": {"OBJECT_NAME": "COSMOS 2251 DEB", "OBJECT_ID": "1993-036BPL", "EPOCH": "2025-12-13T03:18:27.462240", "MEAN_MOTION": 14.57979799, "ECCENTRICITY": 0.00406759, "INCLINATION": 74.0407, "RA_OF_ASC_NODE": 136.3488, "ARG_OF_PERICENTER": 216.8805, "MEAN_ANOMALY": 142.9561, "EPHEMERIS_TYPE": 0, "CLASSIFICATION_TYPE": "U", "NORAD_CAT_ID": 37961, "ELEMENT_SET_NO": 999, "REV_AT_EPOCH": 80071, "BSTAR": 0.001729191, "MEAN_MOTION_DOT": 8.011e-05, "MEAN_MOTION_DDOT": 0}, "tle": {"line1": "1 37961U 93036BPL 25347.13781785  .00008011  00000+0  17292-2 0  9990", "line2": "2 37961  74.0407 136.3488 0040675 216.8805 142.9561 14.57979799800716"}}, "geometry": {"type": "Point", "coordinates": [52.3777535681146, -72.38195663206392]}}, {"type": "Feature", "properties": {"norad_id": 37966, "name": "COSMOS 2251 DEB", "group": "cosmos-2251-debris", "lat": -5.314912582056564, "lon": -153.341074179839, "alt_km": 527.214949364351, "timestamp": "2025-12-23T11:34:48.558112+00:00", "meta": {"OBJECT_NAME": "COSMOS 2251 DEB", "OBJECT_ID": "1993-036BPR", "EPOCH": "2025-12-13T08:51:38.421216", "MEAN_MOTION": 15.12745257, "ECCENTRICITY": 0.0008827, "INCLINATION": 73.9781, "RA_OF_ASC_NODE": 229.2381, "ARG_OF_PERICENTER": 105.5668, "MEAN_ANOMALY": 254.6501, "EPHEMERIS_TYPE": 0, "CLASSIFICATION_TYPE": "U", "NORAD_CAT_ID": 37966, "ELEMENT_SET_NO": 999, "REV_AT_EPOCH": 85352, "BSTAR": 0.0033929269, "MEAN_MOTION_DOT": 0.00060007, "MEAN_MOTION_DDOT": 0}, "tle": {"line1": "1 37966U 93036BPR 25347.36919469  .00060007  00000+0  33929-2 0  9990", "line2": "2 37966  73.9781 229.2381 0008827 105.5668 254.6501 15.12745257853526"}}, "geometry": {"type": "Point", "coordinates": [-153.341074179839, -5.314912582056564]}}, {"type": "Feature", "properties": {"norad_id": 37967, "name": "COSMOS 2251 DEB", "group": "cosmos-2251-debris", "lat": 73.97779465633369, "lon": -149.02476278897234, "alt_km": 851.8907870257426, "timestamp": "2025-12-23T11:34:48.558121+00:00", "meta": {"OBJECT_NAME": "COSMOS 2251 DEB", "OBJECT_ID": "1993-036BPS", "EPOCH": "2025-12-22T01:49:01.207488", "MEAN_MOTION": 14.40612798, "ECCENTRICITY": 0.01510383, "INCLINATION": 74.0159, "RA_OF_ASC_NODE": 120.0869, "ARG_OF_PERICENTER": 256.8884, "MEAN_ANOMALY": 101.5378, "EPHEMERIS_TYPE": 0, "CLASSIFICATION_TYPE": "U", "NORAD_CAT_ID": 37967, "ELEMENT_SET_NO": 999, "REV_AT_EPOCH": 64870, "BSTAR": 0.0017999516, "MEAN_MOTION_DOT": 6.547e-05, "MEAN_MOTION_DDOT": 0}, "tle": {"line1": "1 37967U 93036BPS 25356.07570842  .00006547  00000+0  18000-2 0  9999", "line2": "2 37967  74.0159 120.0869 0151038 256.8884 101.5378 14.40612798648707"}}, "geometry": {"type": "Point", "coordinates": [-149.02476278897234, 73.97779465633369]}}]}